NORAD_CAT_ID,OBJECT_NAME,OBJECT_TYPE,EPOCH,MEAN_MOTION,ECCENTRICITY,INCLINATION,RA_OF_ASC_NODE,ARG_OF_PERICENTER,MEAN_ANOMALY,BSTAR,MEAN_MOTION_DOT,MEAN_MOTION_DDOT,TLE_LINE0,TLE_LINE1,TLE_LINE2,SEMIMAJOR_AXIS,PERIOD,APOGEE,PERIGEE,DECAYED
54091.0,STARLINK-5221,PAYLOAD,2022-12-07 22:00:00,15.54021293,0.000136,53.2168,269.3385,76.0973,27.2194,-0.010851,-0.00658422,0.0,0 STARLINK-5221,1 54091U 22136AS  22341.91667824 -.00658422  00000-0 -10851-1 0  9993,2 54091  53.2168 269.3385 0001360  76.0973  27.2194 15.54021293  1305,6783.136,92.663,405.924,404.079,0.0
54091.0,STARLINK-5221,PAYLOAD,2022-12-08 00:00:00,15.54121365,0.0001224,53.2175,268.938,77.438,132.2641,-0.018173,-0.01088711,0.0,0 STARLINK-5221,1 54091U 22136AS  22342.00001157 -.01088711  00000-0 -18173-1 0  9999,2 54091  53.2175 268.9380 0001224  77.4380 132.2641 15.54121365  8109,6782.845,92.657,405.54,403.88,0.0
54091.0,STARLINK-5221,PAYLOAD,2022-12-08 14:00:01,15.527316,0.0001189,53.2173,266.1356,77.4979,156.2415,-0.020106,-0.01139339,0.0,0 STARLINK-5221,1 54091U 22136AS  22342.58334491 -.01139339  00000-0 -20106-1 0  9994,2 54091  53.2173 266.1356 0001189  77.4979 156.2415 15.52731600  1301,6786.892,92.74,409.564,407.95,0.0
54091.0,STARLINK-5221,PAYLOAD,2022-12-08 22:00:01,15.51911192,0.0001131,53.2176,264.5364,79.1534,218.4812,-0.020529,-0.01130137,0.0,0 STARLINK-5221,1 54091U 22136AS  22342.91668981 -.01130137  00000-0 -20529-1 0  9991,2 54091  53.2176 264.5364 0001131  79.1534 218.4812 15.51911192  1305,6789.283,92.789,411.916,410.38,0.0
54091.0,STARLINK-5221,PAYLOAD,2022-12-09 00:00:00,15.51706936,0.0001139,53.2173,264.1377,62.6951,340.6789,-0.020662,-0.01129192,0.0,0 STARLINK-5221,1 54091U 22136AS  22343.00001157 -.01129192  00000-0 -20662-1 0  9995,2 54091  53.2173 264.1377 0001139  62.6951 340.6789 15.51706936  8261,6789.879,92.801,412.517,410.971,0.0
54091.0,STARLINK-5221,PAYLOAD,2022-12-09 14:00:01,15.50186926,9.22e-05,53.2175,261.3444,87.4821,334.8198,-0.0074783,-0.00407845,0.0,0 STARLINK-5221,1 54091U 22136AS  22343.58334491 -.00407845  00000-0 -74783-2 0  9995,2 54091  53.2175 261.3444 0000922  87.4821 334.8198 15.50186926  1304,6794.316999999999,92.892,416.8080000000001,415.555,0.0
54091.0,STARLINK-5221,PAYLOAD,2022-12-09 16:00:00,15.50044271,9.82e-05,53.2173,260.9451,81.5752,86.0539,-0.0043547,-0.00241489,0.0,0 STARLINK-5221,1 54091U 22136AS  22343.66667824 -.00241489  00000-0 -43547-2 0  9997,2 54091  53.2173 260.9451 0000982  81.5752  86.0539 15.50044271  8363,6794.734,92.901,417.266,415.931,0.0
54091.0,STARLINK-5221,PAYLOAD,2022-12-10 00:00:00,15.49843675,0.0001721999999999,53.2144,259.3604,82.7965,145.6795,-2.0138e-05,-1.593e-05,0.0,0 STARLINK-5221,1 54091U 22136AS  22344.00001157 -.00001593  00000-0 -20138-4 0  9990,2 54091  53.2144 259.3604 0001722  82.7965 145.6795 15.49843675  8410,6795.32,92.913,418.355,416.015,0.0
54091.0,STARLINK-5221,PAYLOAD,2022-12-10 14:00:01,15.49732936,0.0001533,53.2156,256.5678,86.7859,158.241,0.0068245,0.00405455,0.0,0 STARLINK-5221,1 54091U 22136AS  22344.58334491  .00405455  00000-0  68245-2 0  9995,2 54091  53.2156 256.5678 0001533  86.7859 158.2410 15.49732936  1301,6795.644,92.919,418.55,416.467,0.0
54091.0,STARLINK-5221,PAYLOAD,2022-12-10 16:00:00,15.49867471,0.0001341999999999,53.2155,256.1685,85.9928,264.2219,0.0027052,0.00156085,0.0,0 STARLINK-5221,1 54091U 22136AS  22344.66667824  .00156085  00000-0  27052-2 0  9996,2 54091  53.2155 256.1685 0001342  85.9928 264.2219 15.49867471  8529,6795.25,92.911,418.027,416.203,0.0
54091.0,STARLINK-5221,PAYLOAD,2022-12-10 22:00:00,15.50510312,0.0001218,53.2175,254.9736,99.0562,206.7249,-0.033251,-0.01721642,0.0,0 STARLINK-5221,1 54091U 22136AS  22344.91667824 -.01721642  00000-0 -33251-1 0  9991,2 54091  53.2175 254.9736 0001218  99.0562 206.7249 15.50510312  1300,6793.371999999999,92.873,416.065,414.41,0.0
54091.0,STARLINK-5221,PAYLOAD,2022-12-11 00:00:00,15.50036866,0.0001143,53.2176,254.5745,90.4447,320.7568,-0.027241,-0.01394577,0.0,0 STARLINK-5221,1 54091U 22136AS  22345.00001157 -.01394577  00000-0 -27241-1 0  9998,2 54091  53.2176 254.5745 0001143  90.4447 320.7568 15.50036866  8575,6794.755,92.901,417.397,415.844,0.0
54091.0,STARLINK-5221,PAYLOAD,2022-12-11 08:00:01,15.49040237,0.0001224,53.2172,252.9822,69.7999,41.9313,-0.022703,-0.01144618,0.0,0 STARLINK-5221,1 54091U 22136AS  22345.33335648 -.01144618  00000-0 -22703-1 0  9996,2 54091  53.2172 252.9822 0001224  69.7999  41.9313 15.49040237  8621,6797.669,92.961,420.366,418.702,0.0
54091.0,STARLINK-5221,PAYLOAD,2022-12-11 14:00:01,15.48427922,0.0001058,53.2174,251.7881,88.7356,337.5746,-0.023137,-0.01141764,0.0,0 STARLINK-5221,1 54091U 22136AS  22345.58334491 -.01141764  00000-0 -23137-1 0  9999,2 54091  53.2174 251.7881 0001058  88.7356 337.5746 15.48427922  1309,6799.4609999999975,92.998,422.046,420.607,0.0
54091.0,STARLINK-5221,PAYLOAD,2022-12-11 22:00:01,15.47615366,0.0001224,53.2174,250.2005,85.0841,39.9565,-0.023844,-0.01143438,0.0,0 STARLINK-5221,1 54091U 22136AS  22345.91668981 -.01143438  00000-0 -23844-1 0  9995,2 54091  53.2174 250.2005 0001224  85.0841  39.9565 15.47615366  1307,6801.840999999999,93.046,424.539,422.874,0.0
54091.0,STARLINK-5221,PAYLOAD,2022-12-12 08:00:01,15.46600455,0.0001153,53.2172,248.2178,89.5122,197.4216,-0.024791,-0.01147125,0.0,0 STARLINK-5221,1 54091U 22136AS  22346.33334491 -.01147125  00000-0 -24791-1 0  9997,2 54091  53.2172 248.2178 0001153  89.5122 197.4216 15.46600455  8789,6804.816999999999,93.107,427.466,425.897,0.0
54091.0,STARLINK-5221,PAYLOAD,2022-12-12 14:00:01,15.45986739,0.0001246,53.2173,247.0281,96.3655,143.012,-0.025171,-0.01140778,0.0,0 STARLINK-5221,1 54091U 22136AS  22346.58334491 -.01140778  00000-0 -25171-1 0  9994,2 54091  53.2173 247.0281 0001246  96.3655 143.0120 15.45986739  1305,6806.6169999999975,93.144,429.33,427.634,0.0
54091.0,STARLINK-5221,PAYLOAD,2022-12-12 22:00:00,15.45177772,0.0001149,53.2169,245.4472,98.9383,196.1691,-0.026048,-0.01147379,0.0,0 STARLINK-5221,1 54091U 22136AS  22346.91667824 -.01147379  00000-0 -26048-1 0  9998,2 54091  53.2169 245.4472 0001149  98.9383 196.1691 15.45177772  1303,6808.993,93.193,431.64,430.075,0.0
54091.0,STARLINK-5221,PAYLOAD,2022-12-13 06:00:00,15.44360883,0.0001095999999999,53.2175,243.8657,90.8524,259.0125,-0.026699,-0.0114385,0.0,0 STARLINK-5221,1 54091U 22136AS  22347.25001157 -.01143850  00000-0 -26699-1 0  9999,2 54091  53.2175 243.8657 0001096  90.8524 259.0125 15.44360883  8928,6811.394,93.242,434.005,432.512,0.0
54091.0,STARLINK-5221,PAYLOAD,2022-12-13 14:00:01,15.43544873,0.0001083,53.2174,242.2855,105.8166,297.8279,-0.027349,-0.01139881,0.0,0 STARLINK-5221,1 54091U 22136AS  22347.58334491 -.01139881  00000-0 -27349-1 0  9997,2 54091  53.2174 242.2855 0001083 105.8166 297.8279 15.43544873  1302,6813.794,93.292,436.397,434.921,0.0
54091.0,STARLINK-5221,PAYLOAD,2022-12-13 22:00:00,15.42732873,0.0001204,53.2175,240.7101,79.2746,17.1683,-0.02818,-0.01142395,0.0,0 STARLINK-5221,1 54091U 22136AS  22347.91667824 -.01142395  00000-0 -28180-1 0  9991,2 54091  53.2175 240.7101 0001204  79.2746  17.1683 15.42732873  1303,6816.185,93.341,438.87,437.229,0.0
54091.0,STARLINK-5221,PAYLOAD,2022-12-14 06:00:00,15.41919186,0.0001332,53.2172,239.1353,67.4592,80.8053,-0.028946,-0.01141761,0.0,0 STARLINK-5221,1 54091U 22136AS  22348.25001157 -.01141761  00000-0 -28946-1 0  9996,2 54091  53.2172 239.1353 0001332  67.4592  80.8053 15.41919186  9074,6818.583000000001,93.39,441.356,439.539,0.0
54091.0,STARLINK-5221,PAYLOAD,2022-12-14 14:00:01,15.41110283,0.0001225,53.2169,237.5615,77.7032,121.4038,-0.029954,-0.01149159,0.0,0 STARLINK-5221,1 54091U 22136AS  22348.58334491 -.01149159  00000-0 -29954-1 0  9991,2 54091  53.2169 237.5615 0001225  77.7032 121.4038 15.41110283  1301,6820.968000000003,93.439,443.669,441.99800000000016,0.0
54091.0,STARLINK-5221,PAYLOAD,2022-12-14 22:00:00,15.40293676,0.0001284999999999,53.2171,235.9915,97.9191,151.0548,-0.030643,-0.01144442,0.0,0 STARLINK-5221,1 54091U 22136AS  22348.91667824 -.01144442  00000-0 -30643-1 0  9994,2 54091  53.2171 235.9915 0001285  97.9191 151.0548 15.40293676  1307,6823.379,93.489,446.121,444.367,0.0
54091.0,STARLINK-5221,PAYLOAD,2022-12-15 10:00:00,15.39070591,0.0001256,53.2175,233.6369,90.5762,51.3656,-0.031792,-0.01140539,0.0,0 STARLINK-5221,1 54091U 22136AS  22349.41667824 -.01140539  00000-0 -31792-1 0  9999,2 54091  53.2175 233.6369 0001256  90.5762  51.3656 15.39070591  9251,6826.993,93.563,449.716,448.001,0.0
54091.0,STARLINK-5221,PAYLOAD,2022-12-15 14:00:01,15.38661065,0.0001088,53.2173,232.8529,93.2726,252.5037,-0.03211,-0.01136806,0.0,0 STARLINK-5221,1 54091U 22136AS  22349.58334491 -.01136806  00000-0 -32110-1 0  9995,2 54091  53.2173 232.8529 0001088  93.2726 252.5037 15.38661065  1308,6828.205,93.588,450.81300000000016,449.327,0.0
54091.0,STARLINK-5221,PAYLOAD,2022-12-15 22:00:00,15.37850347,0.0001125,53.2175,231.2892,81.9034,310.8034,-0.033108,-0.01140974,0.0,0 STARLINK-5221,1 54091U 22136AS  22349.91667824 -.01140974  00000-0 -33108-1 0  9990,2 54091  53.2175 231.2892 0001125  81.9034 310.8034 15.37850347  1301,6830.604,93.637,453.23800000000006,451.701,0.0
54091.0,STARLINK-5221,PAYLOAD,2022-12-16 08:00:01,15.36836168,0.0001330999999999,53.2167,229.3353,85.7071,94.2893,-0.034364,-0.01145349,0.0,0 STARLINK-5221,1 54091U 22136AS  22350.33334491 -.01145349  00000-0 -34364-1 0  9995,2 54091  53.2167 229.3353 0001331  85.7071  94.2893 15.36836168  9391,6833.609,93.699,456.384,454.564,0.0
54091.0,STARLINK-5221,PAYLOAD,2022-12-16 14:00:01,15.36221369,0.0001302,53.217,228.1636,81.1777,42.4623,-0.034861,-0.01139499,0.0,0 STARLINK-5221,1 54091U 22136AS  22350.58334491 -.01139499  00000-0 -34861-1 0  9993,2 54091  53.2170 228.1636 0001302  81.1777  42.4623 15.36221369  1307,6835.432,93.736,458.187,456.407,0.0
